{"type": "FeatureCollection", "features": [ {"type": "Feature", "properties": {"norad_id": 31821, "name": "FENGYUN 1C DEB", "group": "fengyun-1c-debris", "lat": -43.7638542155418, "lon": -124.99828047048396, "alt_km": 710.9100427243256, "timestamp": "2025-12-07T22:37:43.364243+00:00", "meta": {"OBJECT_NAME": "FENGYUN 1C DEB", "OBJECT_ID": "1999-025CHK", "EPOCH": "2025-12-06T03:31:09.087744", "MEAN_MOTION": 14.4155298, "ECCENTRICITY": 0.02212689, "INCLINATION": 98.1561, "RA_OF_ASC_NODE": 225.3899, "ARG_OF_PERICENTER": 34.4184, "MEAN_ANOMALY": 327.1114, "EPHEMERIS_TYPE": 0, "CLASSIFICATION_TYPE": "U", "NORAD_CAT_ID": 31821, "ELEMENT_SET_NO": 999, "REV_AT_EPOCH": 93566, "BSTAR": 0.0078422064, "MEAN_MOTION_DOT": 0.0003427, "MEAN_MOTION_DDOT": 0}, "tle": {"line1": "1 31821U 99025CHK 25340.14663296  .00034270  00000+0  78422-2 0  9991", "line2": "2 31821  98.1561 225.3899 0221268  34.4184 327.1114 14.41552980935667"}}, "geometry": {"type": "Point", "coordinates": [-124.99828047048396, -43.7638542155418]}}, {"type": "Feature", "properties": {"norad_id": 31823, "name": "FENGYUN 1C DEB", "group": "fengyun-1c-debris", "lat": 70.68298632460075, "lon": 38.833537037883616, "alt_km": 693.0016309648645, "timestamp": "2025-12-07T22:37:43.364254+00:00", "meta": {"OBJECT_NAME": "FENGYUN 1C DEB", "OBJECT_ID": "1999-025CHM", "EPOCH": "2025-12-07T00:59:35.841984", "MEAN_MOTION": 14.65563433, "ECCENTRICITY": 0.00371016, "INCLINATION": 99.512, "RA_OF_ASC_NODE": 66.368, "ARG_OF_PERICENTER": 236.5551, "MEAN_ANOMALY": 123.2099, "EPHEMERIS_TYPE": 0, "CLASSIFICATION_TYPE": "U", "NORAD_CAT_ID": 31823, "ELEMENT_SET_NO": 999, "REV_AT_EPOCH": 96634, "BSTAR": 0.0020734967, "MEAN_MOTION_DOT": 0.00011319, "MEAN_MOTION_DDOT": 0}, "tle": {"line1": "1 31823U 99025CHM 25341.04138706  .00011319  00000+0  20735-2 0  9999", "line2": "2 31823  99.5120  66.3680 0037101 236.5551 123.2099 14.65563433966347"}}, "geometry": {"type": "Point", "coordinates": [38.833537037883616, 70.68298632460075]}}, {"type": "Feature", "properties": {"norad_id": 31825, "name": "FENGYUN 1C DEB", "group": "fengyun-1c-debris", "lat": -3.135127295864368, "lon": 161.19426593205918, "alt_km": 940.5249579702913, "timestamp": "2025-12-07T22:37:43.364264+00:00", "meta": {"OBJECT_NAME": "FENGYUN 1C DEB", "OBJECT_ID": "1999-025CHP", "EPOCH": "2025-12-07T06:33:54.720000", "MEAN_MOTION": 14.21616599, "ECCENTRICITY": 0.01659968, "INCLINATION": 98.5902, "RA_OF_ASC_NODE": 341.0169, "ARG_OF_PERICENTER": 354.2211, "MEAN_ANOMALY": 5.7048, "EPHEMERIS_TYPE": 0, "CLASSIFICATION_TYPE": "U", "NORAD_CAT_ID": 31825, "ELEMENT_SET_NO": 999, "REV_AT_EPOCH": 95544, "BSTAR": 0.0012639022, "MEAN_MOTION_DOT": 3.145e-05, "MEAN_MOTION_DDOT": 0}, "tle": {"line1": "1 31825U 99025CHP 25341.27355000  .00003145  00000+0  12639-2 0  9996", "line2": "2 31825  98.5902 341.0169 0165996 354.2211   5.7048 14.21616599955447"}}, "geometry": {"type": "Point", "coordinates": [161.19426593205918, -3.135127295864368]}}, {"type": "Feature", "properties": {"norad_id": 31826, "name": "FENGYUN 1C DEB", "group": "fengyun-1c-debris", "lat": 80.93352827743576, "lon": -98.83437682275898, "alt_km": 858.5778967174392, "timestamp": "2025-12-07T22:37:43.364275+00:00", "meta": {"OBJECT_NAME": "FENGYUN 1C DEB", "OBJECT_ID": "1999-025CHQ", "EPOCH": "2025-12-06T11:23:56.742720", "MEAN_MOTION": 14.19260003, "ECCENTRICITY": 0.01237064, "INCLINATION": 98.6256, "RA_OF_ASC_NODE": 331.7661, "ARG_OF_PERICENTER": 207.4474, "MEAN_ANOMALY": 305.2757, "EPHEMERIS_TYPE": 0, "CLASSIFICATION_TYPE": "U", "NORAD_CAT_ID": 31826, "ELEMENT_SET_NO": 999, "REV_AT_EPOCH": 95725, "BSTAR": 0.00064429982, "MEAN_MOTION_DOT": 1.415e-05, "MEAN_MOTION_DDOT": 0}, "tle": {"line1": "1 31826U 99025CHQ 25340.47496230  .00001415  00000+0  64430-3 0  9994", "line2": "2 31826  98.6256 331.7661 0123706 207.4474 305.2757 14.19260003957255"}}, "geometry": {"type": "Point", "coordinates": [-98.83437682275898, 80.93352827743576]}}, {"type": "Feature", "properties": {"norad_id": 31829, "name": "FENGYUN 1C DEB", "group": "fengyun-1c-debris", "lat": 78.89716577662101, "lon": 99.59067860949185, "alt_km": 932.9459078208092, "timestamp": "2025-12-07T22:37:43.364285+00:00", "meta": {"OBJECT_NAME": "FENGYUN 1C DEB", "OBJECT_ID": "1999-025CHT", "EPOCH": "2025-12-03T06:39:41.312736", "MEAN_MOTION": 13.8866372, "ECCENTRICITY": 0.0168978, "INCLINATION": 98.8353, "RA_OF_ASC_NODE": 147.5933, "ARG_OF_PERICENTER": 190.204, "MEAN_ANOMALY": 344.9165, "EPHEMERIS_TYPE": 0, "CLASSIFICATION_TYPE": "U", "NORAD_CAT_ID": 31829, "ELEMENT_SET_NO": 999, "REV_AT_EPOCH": 94016, "BSTAR": 0.00067055, "MEAN_MOTION_DOT": 8.64e-06, "MEAN_MOTION_DDOT": 0}, "tle": {"line1": "1 31829U 99025CHT 25337.27756149  .00000864  00000+0  67055-3 0  9992", "line2": "2 31829  98.8353 147.5933 0168978 190.2040 344.9165 13.88663720940164"}}, "geometry": {"type": "Point", "coordinates": [99.59067860949185, 78.89716577662101]}}, {"type": "Feature", "properties": {"norad_id": 31830, "name": "FENGYUN 1C DEB", "group": "fengyun-1c-debris", "lat": -3.2782136080456166, "lon": -92.77914604335209, "alt_km": 1062.5733702859652, "timestamp": "2025-12-07T22:37:43.364295+00:00", "meta": {"OBJECT_NAME": "FENGYUN 1C DEB", "OBJECT_ID": "1999-025CHU", "EPOCH": "2025-12-07T06:14:59.620128", "MEAN_MOTION": 13.83385826, "ECCENTRICITY": 0.01818039, "INCLINATION": 99.1638, "RA_OF_ASC_NODE": 87.0856, "ARG_OF_PERICENTER": 329.3443, "MEAN_ANOMALY": 58.1765, "EPHEMERIS_TYPE": 0, "CLASSIFICATION_TYPE": "U", "NORAD_CAT_ID": 31830, "ELEMENT_SET_NO": 999, "REV_AT_EPOCH": 92664, "BSTAR": 0.0026155712, "MEAN_MOTION_DOT": 3.224e-05, "MEAN_MOTION_DDOT": 0}, "tle": {"line1": "1 31830U 99025CHU 25341.26041227  .00003224  00000+0  26156-2 0  9991", "line2": "2 31830  99.1638  87.0856 0181803 329.3443  58.1765 13.83385826926642"}}, "geometry": {"type": "Point", "coordinates": [-92.77914604335209, -3.2782136080456166]}}, {"type": "Feature", "properties": {"norad_id": 31834, "name": "FENGYUN 1C DEB", "group": "fengyun-1c-debris", "lat": -10.498056495967866, "lon": -155.91205122098918, "alt_km": 908.8932207219586, "timestamp": "2025-12-07T22:37:43.364306+00:00", "meta": {"OBJECT_NAME": "FENGYUN 1C DEB", "OBJECT_ID": "1999-025CHY", "EPOCH": "2025-12-06T21:00:29.900448", "MEAN_MOTION": 14.03146077, "ECCENTRICITY": 0.0162719, "INCLINATION": 98.3689, "RA_OF_ASC_NODE": 201.5424, "ARG_OF_PERICENTER": 94.0747, "MEAN_ANOMALY": 267.9038, "EPHEMERIS_TYPE": 0, "CLASSIFICATION_TYPE": "U", "NORAD_CAT_ID": 31834, "ELEMENT_SET_NO": 999, "REV_AT_EPOCH": 63628, "BSTAR": 0.00035819044, "MEAN_MOTION_DOT": 5.89e-06, "MEAN_MOTION_DDOT": 0}, "tle": {"line1": "1 31834U 99025CHY 25340.87534607  .00000589  00000+0  35819-3 0  9998", "line2": "2 31834  98.3689 201.5424 0162719  94.0747 267.9038 14.03146077636282"}}, "geometry": {"type": "Point", "coordinates": [-155.91205122098918, -10.498056495967866]}}, {"type": "Feature", "properties": {"norad_id": 31837, "name": "FENGYUN 1C DEB", "group": "fengyun-1c-debris", "lat": -26.091054928059023, "lon": 61.42568325983601, "alt_km": 594.4282408294366, "timestamp": "2025-12-07T22:37:43.364316+00:00", "meta": {"OBJECT_NAME": "FENGYUN 1C DEB", "OBJECT_ID": "1999-025CJB", "EPOCH": "2025-12-06T11:05:58.197696", "MEAN_MOTION": 14.82076546, "ECCENTRICITY": 0.0094318, "INCLINATION": 98.102, "RA_OF_ASC_NODE": 55.9272, "ARG_OF_PERICENTER": 38.0956, "MEAN_ANOMALY": 322.6875, "EPHEMERIS_TYPE": 0, "CLASSIFICATION_TYPE": "U", "NORAD_CAT_ID": 31837, "ELEMENT_SET_NO": 999, "REV_AT_EPOCH": 98266, "BSTAR": 0.001865506, "MEAN_MOTION_DOT": 0.00015992, "MEAN_MOTION_DDOT": 0}, "tle": {"line1": "1 31837U 99025CJB 25340.46247914  .00015992  00000+0  18655-2 0  9990", "line2": "2 31837  98.1020  55.9272 0094318  38.0956 322.6875 14.82076546982667"}}, "geometry": {"type": "Point", "coordinates": [61.42568325983601, -26.091054928059023]}}, {"type": "Feature", "properties": {"norad_id": 31838, "name": "FENGYUN 1C DEB", "group": "fengyun-1c-debris", "lat": -12.090202692733074, "lon": -149.18537193337391, "alt_km": 822.5066511416007, "timestamp": "2025-12-07T22:37:43.364326+00:00", "meta": {"OBJECT_NAME": "FENGYUN 1C DEB", "OBJECT_ID": "1999-025CJC", "EPOCH": "2025-12-06T08:49:21.453024", "MEAN_MOTION": 14.21105731, "ECCENTRICITY": 0.00388378, "INCLINATION": 98.7183, "RA_OF_ASC_NODE": 31.1437, "ARG_OF_PERICENTER": 113.4762, "MEAN_ANOMALY": 303.75, "EPHEMERIS_TYPE": 0, "CLASSIFICATION_TYPE": "U", "NORAD_CAT_ID": 31838, "ELEMENT_SET_NO": 999, "REV_AT_EPOCH": 64486, "BSTAR": 0.0013391766, "MEAN_MOTION_DOT": 2.888e-05, "MEAN_MOTION_DDOT": 0}, "tle": {"line1": "1 31838U 99025CJC 25340.36760941  .00002888  00000+0  13392-2 0  9993", "line2": "2 31838  98.7183  31.1437 0038837 113.4762 303.7500 14.21105731644864"}}, "geometry": {"type": "Point", "coordinates": [-149.18537193337391, -12.090202692733074]}}, {"type": "Feature", "properties": {"norad_id": 31841, "name": "FENGYUN 1C DEB", "group": "fengyun-1c-debris", "lat": 14.399736067817251, "lon": 148.84899548647456, "alt_km": 751.111802444716, "timestamp": "2025-12-07T22:37:43.364337+00:00", "meta": {"OBJECT_NAME": "FENGYUN 1C DEB", "OBJECT_ID": "1999-025CJF", "EPOCH": "2025-12-06T06:21:25.793568", "MEAN_MOTION": 14.03499984, "ECCENTRICITY": 0.03088004, "INCLINATION": 98.4174, "RA_OF_ASC_NODE": 149.4715, "ARG_OF_PERICENTER": 323.8486, "MEAN_ANOMALY": 214.4661, "EPHEMERIS_TYPE": 0, "CLASSIFICATION_TYPE": "U", "NORAD_CAT_ID": 31841, "ELEMENT_SET_NO": 999, "REV_AT_EPOCH": 59248, "BSTAR": 0.0025383522, "MEAN_MOTION_DOT": 6.033e-05, "MEAN_MOTION_DDOT": 0}, "tle": {"line1": "1 31841U 99025CJF 25340.26488187  .00006033  00000+0  25384-2 0  9995", "line2": "2 31841  98.4174 149.4715 0308800 323.8486 214.4661 14.03499984592489"}}, "geometry": {"type": "Point", "coordinates": [148.84899548647456, 14.399736067817251]}}]}